[{"OBJECT_NAME":"YAOGAN-43 01F","OBJECT_ID":"2024-148F","EPOCH":"2026-03-10T00:23:08.877408","MEAN_MOTION":15.29824616,"ECCENTRICITY":0.00057048,"INCLINATION":34.9925,"RA_OF_ASC_NODE":59.8891,"ARG_OF_PERICENTER":18.4862,"MEAN_ANOMALY":341.6062,"EPHEMERIS_TYPE":0,"CLASSIFICATION_TYPE":"U","NORAD_CAT_ID":60463,"ELEMENT_SET_NO":999,"REV_AT_EPOCH":8707,"BSTAR":0.00058388219,"MEAN_MOTION_DOT":0.00017308,"MEAN_MOTION_DDOT":0},{"OBJECT_NAME":"STARLINK-34821","OBJECT_ID":"2025-176B","EPOCH":"2026-03-09T12:09:27.470016","MEAN_MOTION":15.30192398,"ECCENTRICITY":0.00010937,"INCLINATION":53.159,"RA_OF_ASC_NODE":153.4898,"ARG_OF_PERICENTER":99.2619,"MEAN_ANOMALY":260.8506,"EPHEMERIS_TYPE":0,"CLASSIFICATION_TYPE":"U","NORAD_CAT_ID":65199,"ELEMENT_SET_NO":999,"REV_AT_EPOCH":3303,"BSTAR":0.00088866076,"MEAN_MOTION_DOT":0.00026046,"MEAN_MOTION_DDOT":0}]
